[
    {
        "Altitude(m)": 610399.5745926908,
        "Argument of Periapsis(deg)": 0.0,
        "Eccentricity": 0.0,
        "Inclination(deg)": 60.0,
        "Latitude(deg)": 52.111461170699485,
        "Longitude(deg)": 117.58434040331944,
        "Mean Anomaly(deg)": 65.45449999999998,
        "RAAN(deg)": 170.00000000000003,
        "Satellite Name": "Test1 752",
        "Satellite Number": 752,
        "Semi-Major Axis(m)": 6980739.136638005,
        "Time(s)": 0
    },
    {
        "Altitude(m)": 610481.7253929392,
        "Argument of Periapsis(deg)": 0.00010418945913296404,
        "Eccentricity": 0.0,
        "Inclination(deg)": 60.0,
        "Latitude(deg)": 52.47106303426722,
        "Longitude(deg)": 118.36647930422218,
        "Mean Anomaly(deg)": 66.07460614546183,
        "RAAN(deg)": 169.99957995086027,
        "Satellite Name": "Test1 752",
        "Satellite Number": 752,
        "Semi-Major Axis(m)": 6980739.136638005,
        "Time(s)": 10
    }
]